     2.100          NAVIGATION                              RINEX VERSION / TYPE
fic2rin                                 08/02/2009 02:09:17 PGM / RUN BY / DATE
                                                            END OF HEADER
27 09  8  1 22  0  0.0  .706398859620D-04  .318323145621D-11  .000000000000D+00
     .430000000000D+02 -.637187500000D+02  .412731477637D-08  .223142691049D+01
    -.355020165443D-05  .213071170729D-01  .215880572796D-05  .515376377296D+04
     .597600000000D+06  .288709998131D-06  .155748787137D+01 -.160187482834D-06
     .974918913835D+00  .344687500000D+03 -.156539285308D+01 -.774317967737D-08
    -.639312344211D-10  .100000000000D+01  .154200000000D+04  .000000000000D+00
     .240000000000D+01  .000000000000D+00 -.419095158577D-08  .430000000000D+02
     .590406000000D+06  .400000000000D+01
28 09  8  1 22  0  0.0 -.261054374278D-04 -.113686837722D-12  .000000000000D+00
     .810000000000D+02 -.899375000000D+02  .420517516242D-08  .312845627390D+01
    -.470876693726D-05  .149895008653D-01  .922009348869D-05  .515365477943D+04
     .597600000000D+06  .167638063431D-06  .269315719182D+01 -.244006514549D-06
     .967541034676D+00  .204625000000D+03 -.202120342177D+01 -.749066915929D-08
     .221794952936D-09  .100000000000D+01  .154200000000D+04  .000000000000D+00
     .340000000000D+01  .000000000000D+00 -.107102096081D-07  .810000000000D+02
     .590406000000D+06  .400000000000D+01
29 09  8  1 22  0  0.0  .448576174676D-04  .341060513165D-11  .000000000000D+00
     .360000000000D+02  .553125000000D+01  .482698677766D-08 -.110841385610D+01
     .234693288803D-06  .327603064943D-02  .718235969543D-05  .515363339424D+04
     .597600000000D+06 -.128522515297D-06 -.254786799627D+01 -.726431608200D-07
     .960199923038D+00  .238218750000D+03 -.129165416903D+01 -.806033574534D-08
     .245724521127D-09  .100000000000D+01  .154200000000D+04  .000000000000D+00
     .240000000000D+01  .000000000000D+00 -.884756445885D-08  .360000000000D+02
     .590406000000D+06  .400000000000D+01
30 09  8  1 22  0  0.0  .165498815477D-03  .295585778076D-11  .000000000000D+00
     .260000000000D+02 -.872187500000D+02  .456483300076D-08 -.264871813957D+01
    -.456348061562D-05  .117164115654D-01  .893510878086D-05  .515356922913D+04
     .597600000000D+06  .163912773132D-06  .261920325823D+01  .279396772385D-07
     .952982865390D+00  .199156250000D+03  .143384125411D+01 -.775639451354D-08
     .315013121561D-09  .100000000000D+01  .154200000000D+04  .000000000000D+00
     .240000000000D+01  .000000000000D+00 -.838190317154D-08  .260000000000D+02
     .590406000000D+06  .400000000000D+01
31 09  8  1 22  0  0.0 -.644545070827D-04 -.341060513165D-12  .000000000000D+00
     .110000000000D+02 -.800312500000D+02  .431696553323D-08 -.336107615774D+00
    -.445544719696D-05  .698018970434D-02  .323727726936D-05  .515376353073D+04
     .597600000000D+06 -.102445483208D-06  .161347865728D+01 -.409781932831D-07
     .973328438076D+00  .322062500000D+03 -.113891864145D+01 -.826534428477D-08
     .178578867098D-10  .100000000000D+01  .154200000000D+04  .000000000000D+00
     .240000000000D+01  .000000000000D+00 -.130385160446D-07  .110000000000D+02
     .590406000000D+06  .400000000000D+01
32 09  8  1 22  0  0.0  .222241040319D-03 -.636646291241D-11  .000000000000D+00
     .240000000000D+02  .809687500000D+02  .420160358508D-08  .593299347539D+00
     .400096178055D-05  .132393791573D-01  .968202948570D-05  .515376478386D+04
     .597600000000D+06 -.260770320892D-07 -.394224792611D+00 -.217929482460D-06
     .963263526581D+00  .199375000000D+03 -.113711952139D+01 -.800069040373D-08
    -.338942689752D-09  .100000000000D+01  .154200000000D+04  .000000000000D+00
     .240000000000D+01  .000000000000D+00 -.325962901115D-08  .240000000000D+02
     .590406000000D+06  .400000000000D+01
11 09  8  1 21 59 44.0 -.131907872856D-04 -.170530256582D-11  .000000000000D+00
     .300000000000D+01 -.212500000000D+01  .665849163862D-08 -.314028056529D+00
    -.149011611938D-06  .958422967233D-02  .511854887009D-05  .515368297005D+04
     .597584000000D+06  .931322574615D-08 -.174419565709D+01  .124797224998D-06
     .888830697972D+00  .238125000000D+03  .708876701777D+00 -.911002232614D-08
    -.385730352932D-09  .100000000000D+01  .154200000000D+04  .000000000000D+00
     .240000000000D+01  .000000000000D+00 -.116415321827D-07  .300000000000D+01
     .591156000000D+06  .400000000000D+01
20 09  8  1 21 59 44.0  .758166424930D-04 -.909494701773D-12  .000000000000D+00
     .000000000000D+00  .759687500000D+02  .454197490577D-08 -.217468068978D+01
     .391900539398D-05  .384764629416D-02  .975839793682D-05  .515380377960D+04
     .597584000000D+06  .782310962677D-07 -.505131042107D+00 -.763684511185D-07
     .941183442148D+00  .183031250000D+03  .133862932436D+01 -.786318467606D-08
    -.399302346831D-09  .100000000000D+01  .154200000000D+04  .000000000000D+00
     .240000000000D+01  .000000000000D+00 -.651925802231D-08  .000000000000D+00
     .594546000000D+06  .400000000000D+01
11 09  8  1 23 59 44.0 -.132028944790D-04 -.170530256582D-11  .000000000000D+00
     .240000000000D+02  .409375000000D+01  .671920845343D-08  .736136415905D+00
     .486150383949D-06  .958514364902D-02  .534020364285D-05  .515368478012D+04
     .604784000000D+06  .372529029846D-08 -.174426136845D+01  .102445483208D-06
     .888827909650D+00  .235625000000D+03  .708902645166D+00 -.912216568910D-08
    -.382158775590D-09  .100000000000D+01  .154200000000D+04  .000000000000D+00
     .240000000000D+01  .000000000000D+00 -.116415321827D-07  .240000000000D+02
     .597606000000D+06  .400000000000D+01
20 09  8  1 23 59 44.0  .758096575737D-04 -.909494701773D-12  .000000000000D+00
     .260000000000D+02  .750625000000D+02  .468233789531D-08 -.112430232556D+01
     .372901558876D-05  .384784815833D-02  .916048884392D-05  .515380574608D+04
     .604784000000D+06 -.279396772385D-07 -.505187942306D+00  .968575477600D-07
     .941179487881D+00  .191656250000D+03  .133835254611D+01 -.806355016495D-08
    -.455376111100D-09  .100000000000D+01  .154200000000D+04  .000000000000D+00
     .240000000000D+01  .000000000000D+00 -.651925802231D-08  .260000000000D+02
     .597606000000D+06  .400000000000D+01
 1 09  8  2  0  0  0.0 -.609387643635D-04  .227373675443D-11  .000000000000D+00
     .840000000000D+02 -.806250000000D+02  .567237913450D-08 -.118530508197D+01
    -.405870378017D-05  .366509566084D-02  .898726284504D-05  .515374074173D+04
     .000000000000D+00  .689178705215D-07  .253502437721D+01  .316649675369D-07
     .961793485554D+00  .207468750000D+03  .942948644453D+00 -.785639867911D-08
     .271082720255D-09  .100000000000D+01  .154300000000D+04  .000000000000D+00
     .240000000000D+01  .630000000000D+02 -.130385160446D-07  .840000000000D+02
     .597606000000D+06  .400000000000D+01
 2 09  8  2  0  0  0.0  .162958167493D-03  .204636307899D-11  .000000000000D+00
     .250000000000D+02 -.350000000000D+01  .524593279987D-08  .258283448865D+01
    -.912696123123D-07  .905596546363D-02  .656209886074D-05  .515368215752D+04
     .000000000000D+00 -.122934579849D-06 -.166110643500D+01  .169500708580D-06
     .940558751259D+00  .244781250000D+03  .287383825538D+01 -.815605401810D-08
    -.466805158594D-09  .100000000000D+01  .154300000000D+04  .000000000000D+00
     .240000000000D+01  .000000000000D+00 -.172294676304D-07  .250000000000D+02
     .597606000000D+06  .400000000000D+01
 3 09  8  2  0  0  0.0  .428067054600D-03  .511590769747D-11  .000000000000D+00
     .800000000000D+01  .406250000000D+00  .550308636849D-08  .229552959910D+01
    -.894069671631D-07  .121712269029D-01  .789575278759D-05  .515364099884D+04
     .000000000000D+00 -.894069671631D-07 -.280976096889D+01 -.238418579102D-06
     .926701338750D+00  .209687500000D+03  .920362902386D+00 -.814498212834D-08
     .462162108050D-09  .100000000000D+01  .154300000000D+04  .000000000000D+00
     .240000000000D+01  .000000000000D+00 -.419095158577D-08  .800000000000D+01
     .597606000000D+06  .400000000000D+01
 4 09  8  2  0  0  0.0 -.200976151973D-03 -.167119651451D-10  .000000000000D+00
     .830000000000D+02 -.178125000000D+01  .529343477852D-08 -.832997436155D+00
    -.111758708954D-06  .864551542327D-02  .635534524918D-05  .515376996040D+04
     .000000000000D+00  .175088644028D-06 -.164280541029D+01  .484287738800D-07
     .939758627233D+00  .245906250000D+03  .497227141495D+00 -.828998816843D-08
    -.465733685392D-09  .100000000000D+01  .154300000000D+04  .000000000000D+00
     .240000000000D+01  .000000000000D+00 -.605359673500D-08  .830000000000D+02
     .597606000000D+06  .400000000000D+01
 6 09  8  2  0  0  0.0  .208506360650D-03  .966338120634D-11  .000000000000D+00
     .130000000000D+02  .940625000000D+01  .542094008963D-08 -.160957970557D+01
     .666826963425D-06  .593171978835D-02  .762939453125D-05  .515369396019D+04
     .000000000000D+00 -.111758708954D-06 -.274164220150D+01  .152736902237D-06
     .934112462722D+00  .220406250000D+03 -.129646702468D+01 -.824998650220D-08
     .408588447920D-09  .100000000000D+01  .154300000000D+04  .000000000000D+00
     .240000000000D+01  .000000000000D+00 -.465661287308D-08  .130000000000D+02
     .597606000000D+06  .400000000000D+01
 7 09  8  2  0  0  0.0  .141635537148D-04 -.682121026330D-12  .000000000000D+00
     .970000000000D+02 -.817187500000D+02  .435482425305D-08  .913280250337D+00
    -.419653952122D-05  .293550535571D-02  .247359275818D-05  .515366111755D+04
     .000000000000D+00  .763684511185D-07  .149480982652D+01  .763684511185D-07
     .967980433825D+00  .336468750000D+03  .289342160825D+01 -.820177020808D-08
    -.928610108910D-11  .100000000000D+01  .154300000000D+04  .000000000000D+00
     .240000000000D+01  .000000000000D+00 -.107102096081D-07  .970000000000D+02
     .597606000000D+06  .400000000000D+01
